StartTafDecoder.exe --Taf "TAF KJFK 080500Z 0806/0910 23010KT 6 1/4SM BKN020 BECMG 0807/0810 23024KT P6SM +SHRA BKN025 TX08/0910Z TNM01/0904"
pause